HELIOS 1B               
1 25977U 99064A   26104.15758336  .00000885  00000+0  10322-3 0  9990
2 25977  98.1660   7.4383 0000890  37.5499 322.5778 14.87834759690534
TERRA                   
1 25994U 99068A   26104.26311668  .00000235  00000+0  56827-4 0  9998
2 25994  97.9521 156.3256 0003598  79.6982   1.6679 14.61052446400273
SL-16 R/B               
1 26070U 00006B   26104.19678924 -.00000258  00000+0 -10667-3 0  9999
2 26070  71.0046  23.1760 0014767 133.2330 227.0028 14.15829579353580
TITAN 4B R/B            
1 26474U 00047B   26104.27317933  .00001708  00000+0  11172-3 0  9992
2 26474  67.9869 300.4275 0041283 354.2893   5.7779 15.09862499398281
ENVISAT                 
1 27386U 02009A   26104.30171042  .00000045  00000+0  28555-4 0  9995
2 27386  98.3783  57.0644 0001159  83.8694  82.6493 14.39049336264293
IDEFIX & ARIANE 42P R/B 
1 27422U 02021B   26104.08480124  .00000139  00000+0  69228-4 0  9995
2 27422  98.5908  42.2770 0012998  83.5610 276.7053 14.31050342249088
AQUA                    
1 27424U 02022A   26104.28596369  .00000518  00000+0  11294-3 0  9999
2 27424  98.4230  72.3158 0001760 107.9287  22.2732 14.62057917273935
CZ-4B R/B               
1 27432U 02024C   26104.15676269  .00000005  00000+0  25968-4 0  9999
2 27432  98.8766 157.3723 0049052 282.4971 140.7184 14.14553996234253
MIDORI II (ADEOS-II)    
1 27597U 02056A   26104.15575900  .00000169  00000+0  84188-4 0  9996
2 27597  98.7827  62.8925 0000212 133.2772 226.8428 14.29312428215360
H-2A R/B                
1 27601U 02056E   26103.94557250  .00000210  00000+0  88010-4 0  9991
2 27601  98.3260  62.9825 0071288  57.1034 344.1774 14.33786481219168
CZ-4B R/B               
1 28059U 03049C   26103.72985654  .00000230  00000+0  64246-4 0  9998
2 28059  98.6899 100.0170 0049129 124.0154 236.5722 14.55051881191697
CZ-2C R/B               
1 28222U 04012C   26104.18399874  .00042794  00000+0  36902-3 0  9993
2 28222  97.7155 172.9482 0013944 175.0176 185.1226 15.69031673209831
SL-16 R/B               
1 28353U 04021B   26104.16685062  .00000053  00000+0  52320-4 0  9998
2 28353  71.0006 158.0442 0006191 323.8816  36.1887 14.14605394127852
CZ-4B R/B               
1 28415U 04035C   26104.04412766  .00004235  00000+0  14786-3 0  9997
2 28415  97.3444 137.8668 0031130 199.9004 160.1025 15.29680731185317
CZ-2C R/B               
1 28480U 04046B   26104.17548774  .00000095  00000+0  50322-4 0  9991
2 28480  98.1973  16.9477 0140429  50.2764 311.0697 14.27006487113561
ARIANE 5 R/B            
1 28499U 04049H   26104.20246506  .00000539  00000+0  66156-4 0  9991
2 28499  98.2676 274.0018 0083012 235.4855 123.8501 14.85335521151060
CZ-2D R/B               
1 28738U 05024B   26104.01205875  .00028394  00000+0  30779-3 0  9994
2 28738  97.3558 120.5378 0002852 211.2897 148.8192 15.63505151145296
