[{"OBJECT_NAME":"HELIOS 1B","OBJECT_ID":"1999-064A","EPOCH":"2026-04-14T03:46:55.202304","MEAN_MOTION":14.87834759,"ECCENTRICITY":8.906e-5,"INCLINATION":98.166,"RA_OF_ASC_NODE":7.4383,"ARG_OF_PERICENTER":37.5499,"MEAN_ANOMALY":322.5778,"EPHEMERIS_TYPE":0,"CLASSIFICATION_TYPE":"U","NORAD_CAT_ID":25977,"ELEMENT_SET_NO":999,"REV_AT_EPOCH":69053,"BSTAR":0.00010322188,"MEAN_MOTION_DOT":8.85e-6,"MEAN_MOTION_DDOT":0},{"OBJECT_NAME":"TERRA","OBJECT_ID":"1999-068A","EPOCH":"2026-04-14T06:18:53.281152","MEAN_MOTION":14.61052446,"ECCENTRICITY":0.0003598,"INCLINATION":97.9521,"RA_OF_ASC_NODE":156.3256,"ARG_OF_PERICENTER":79.6982,"MEAN_ANOMALY":1.6679,"EPHEMERIS_TYPE":0,"CLASSIFICATION_TYPE":"U","NORAD_CAT_ID":25994,"ELEMENT_SET_NO":999,"REV_AT_EPOCH":40027,"BSTAR":5.6827042e-5,"MEAN_MOTION_DOT":2.35e-6,"MEAN_MOTION_DDOT":0},{"OBJECT_NAME":"SL-16 R/B","OBJECT_ID":"2000-006B","EPOCH":"2026-04-14T04:43:22.590336","MEAN_MOTION":14.15829579,"ECCENTRICITY":0.00147674,"INCLINATION":71.0046,"RA_OF_ASC_NODE":23.176,"ARG_OF_PERICENTER":133.233,"MEAN_ANOMALY":227.0028,"EPHEMERIS_TYPE":0,"CLASSIFICATION_TYPE":"U","NORAD_CAT_ID":26070,"ELEMENT_SET_NO":999,"REV_AT_EPOCH":35358,"BSTAR":-0.00010667275,"MEAN_MOTION_DOT":-2.58e-6,"MEAN_MOTION_DDOT":0},{"OBJECT_NAME":"TITAN 4B R/B","OBJECT_ID":"2000-047B","EPOCH":"2026-04-14T06:33:22.694112","MEAN_MOTION":15.09862499,"ECCENTRICITY":0.00412838,"INCLINATION":67.9869,"RA_OF_ASC_NODE":300.4275,"ARG_OF_PERICENTER":354.2893,"MEAN_ANOMALY":5.7779,"EPHEMERIS_TYPE":0,"CLASSIFICATION_TYPE":"U","NORAD_CAT_ID":26474,"ELEMENT_SET_NO":999,"REV_AT_EPOCH":39828,"BSTAR":0.00011171859,"MEAN_MOTION_DOT":1.708e-5,"MEAN_MOTION_DDOT":0},{"OBJECT_NAME":"ENVISAT","OBJECT_ID":"2002-009A","EPOCH":"2026-04-14T07:14:27.780288","MEAN_MOTION":14.39049336,"ECCENTRICITY":0.00011593,"INCLINATION":98.3783,"RA_OF_ASC_NODE":57.0644,"ARG_OF_PERICENTER":83.8694,"MEAN_ANOMALY":82.6493,"EPHEMERIS_TYPE":0,"CLASSIFICATION_TYPE":"U","NORAD_CAT_ID":27386,"ELEMENT_SET_NO":999,"REV_AT_EPOCH":26429,"BSTAR":2.8554782e-5,"MEAN_MOTION_DOT":4.5e-7,"MEAN_MOTION_DDOT":0},{"OBJECT_NAME":"IDEFIX & ARIANE 42P R/B","OBJECT_ID":"2002-021B","EPOCH":"2026-04-14T02:02:06.827136","MEAN_MOTION":14.31050342,"ECCENTRICITY":0.00129983,"INCLINATION":98.5908,"RA_OF_ASC_NODE":42.277,"ARG_OF_PERICENTER":83.561,"MEAN_ANOMALY":276.7053,"EPHEMERIS_TYPE":0,"CLASSIFICATION_TYPE":"U","NORAD_CAT_ID":27422,"ELEMENT_SET_NO":999,"REV_AT_EPOCH":24908,"BSTAR":6.9228111e-5,"MEAN_MOTION_DOT":1.39e-6,"MEAN_MOTION_DDOT":0},{"OBJECT_NAME":"AQUA","OBJECT_ID":"2002-022A","EPOCH":"2026-04-14T06:51:47.262816","MEAN_MOTION":14.62057917,"ECCENTRICITY":0.00017604,"INCLINATION":98.423,"RA_OF_ASC_NODE":72.3158,"ARG_OF_PERICENTER":107.9287,"MEAN_ANOMALY":22.2732,"EPHEMERIS_TYPE":0,"CLASSIFICATION_TYPE":"U","NORAD_CAT_ID":27424,"ELEMENT_SET_NO":999,"REV_AT_EPOCH":27393,"BSTAR":0.00011293886,"MEAN_MOTION_DOT":5.18e-6,"MEAN_MOTION_DDOT":0},{"OBJECT_NAME":"CZ-4B R/B","OBJECT_ID":"2002-024C","EPOCH":"2026-04-14T03:45:44.296416","MEAN_MOTION":14.14553996,"ECCENTRICITY":0.00490529,"INCLINATION":98.8766,"RA_OF_ASC_NODE":157.3723,"ARG_OF_PERICENTER":282.4971,"MEAN_ANOMALY":140.7184,"EPHEMERIS_TYPE":0,"CLASSIFICATION_TYPE":"U","NORAD_CAT_ID":27432,"ELEMENT_SET_NO":999,"REV_AT_EPOCH":23425,"BSTAR":2.5968159e-5,"MEAN_MOTION_DOT":5.0e-8,"MEAN_MOTION_DDOT":0},{"OBJECT_NAME":"MIDORI II (ADEOS-II)","OBJECT_ID":"2002-056A","EPOCH":"2026-04-14T03:44:17.577600","MEAN_MOTION":14.29312428,"ECCENTRICITY":2.128e-5,"INCLINATION":98.7827,"RA_OF_ASC_NODE":62.8925,"ARG_OF_PERICENTER":133.2772,"MEAN_ANOMALY":226.8428,"EPHEMERIS_TYPE":0,"CLASSIFICATION_TYPE":"U","NORAD_CAT_ID":27597,"ELEMENT_SET_NO":999,"REV_AT_EPOCH":21536,"BSTAR":8.4187889e-5,"MEAN_MOTION_DOT":1.69e-6,"MEAN_MOTION_DDOT":0},{"OBJECT_NAME":"H-2A R/B","OBJECT_ID":"2002-056E","EPOCH":"2026-04-13T22:41:37.464000","MEAN_MOTION":14.33786481,"ECCENTRICITY":0.00712881,"INCLINATION":98.326,"RA_OF_ASC_NODE":62.9825,"ARG_OF_PERICENTER":57.1034,"MEAN_ANOMALY":344.1774,"EPHEMERIS_TYPE":0,"CLASSIFICATION_TYPE":"U","NORAD_CAT_ID":27601,"ELEMENT_SET_NO":999,"REV_AT_EPOCH":21916,"BSTAR":8.8009644e-5,"MEAN_MOTION_DOT":2.1e-6,"MEAN_MOTION_DDOT":0},{"OBJECT_NAME":"CZ-4B R/B","OBJECT_ID":"2003-049C","EPOCH":"2026-04-13T17:30:59.605056","MEAN_MOTION":14.55051881,"ECCENTRICITY":0.0049129,"INCLINATION":98.6899,"RA_OF_ASC_NODE":100.017,"ARG_OF_PERICENTER":124.0154,"MEAN_ANOMALY":236.5722,"EPHEMERIS_TYPE":0,"CLASSIFICATION_TYPE":"U","NORAD_CAT_ID":28059,"ELEMENT_SET_NO":999,"REV_AT_EPOCH":19169,"BSTAR":6.4246e-5,"MEAN_MOTION_DOT":2.3e-6,"MEAN_MOTION_DDOT":0},{"OBJECT_NAME":"CZ-2C R/B","OBJECT_ID":"2004-012C","EPOCH":"2026-04-14T04:24:57.491136","MEAN_MOTION":15.69031673,"ECCENTRICITY":0.00139447,"INCLINATION":97.7155,"RA_OF_ASC_NODE":172.9482,"ARG_OF_PERICENTER":175.0176,"MEAN_ANOMALY":185.1226,"EPHEMERIS_TYPE":0,"CLASSIFICATION_TYPE":"U","NORAD_CAT_ID":28222,"ELEMENT_SET_NO":999,"REV_AT_EPOCH":20983,"BSTAR":0.00036901645,"MEAN_MOTION_DOT":0.00042794,"MEAN_MOTION_DDOT":0},{"OBJECT_NAME":"SL-16 R/B","OBJECT_ID":"2004-021B","EPOCH":"2026-04-14T04:00:15.893568","MEAN_MOTION":14.14605394,"ECCENTRICITY":0.00061918,"INCLINATION":71.0006,"RA_OF_ASC_NODE":158.0442,"ARG_OF_PERICENTER":323.8816,"MEAN_ANOMALY":36.1887,"EPHEMERIS_TYPE":0,"CLASSIFICATION_TYPE":"U","NORAD_CAT_ID":28353,"ELEMENT_SET_NO":999,"REV_AT_EPOCH":12785,"BSTAR":5.2320406e-5,"MEAN_MOTION_DOT":5.3e-7,"MEAN_MOTION_DDOT":0},{"OBJECT_NAME":"CZ-4B R/B","OBJECT_ID":"2004-035C","EPOCH":"2026-04-14T01:03:32.629824","MEAN_MOTION":15.29680731,"ECCENTRICITY":0.003113,"INCLINATION":97.3444,"RA_OF_ASC_NODE":137.8668,"ARG_OF_PERICENTER":199.9004,"MEAN_ANOMALY":160.1025,"EPHEMERIS_TYPE":0,"CLASSIFICATION_TYPE":"U","NORAD_CAT_ID":28415,"ELEMENT_SET_NO":999,"REV_AT_EPOCH":18531,"BSTAR":0.00014786279,"MEAN_MOTION_DOT":4.235e-5,"MEAN_MOTION_DDOT":0},{"OBJECT_NAME":"CZ-2C R/B","OBJECT_ID":"2004-046B","EPOCH":"2026-04-14T04:12:42.140736","MEAN_MOTION":14.27006487,"ECCENTRICITY":0.01404295,"INCLINATION":98.1973,"RA_OF_ASC_NODE":16.9477,"ARG_OF_PERICENTER":50.2764,"MEAN_ANOMALY":311.0697,"EPHEMERIS_TYPE":0,"CLASSIFICATION_TYPE":"U","NORAD_CAT_ID":28480,"ELEMENT_SET_NO":999,"REV_AT_EPOCH":11356,"BSTAR":5.0322212e-5,"MEAN_MOTION_DOT":9.5e-7,"MEAN_MOTION_DDOT":0},{"OBJECT_NAME":"ARIANE 5 R/B","OBJECT_ID":"2004-049H","EPOCH":"2026-04-14T04:51:32.981184","MEAN_MOTION":14.85335521,"ECCENTRICITY":0.00830124,"INCLINATION":98.2676,"RA_OF_ASC_NODE":274.0018,"ARG_OF_PERICENTER":235.4855,"MEAN_ANOMALY":123.8501,"EPHEMERIS_TYPE":0,"CLASSIFICATION_TYPE":"U","NORAD_CAT_ID":28499,"ELEMENT_SET_NO":999,"REV_AT_EPOCH":15106,"BSTAR":6.6156482e-5,"MEAN_MOTION_DOT":5.39e-6,"MEAN_MOTION_DDOT":0},{"OBJECT_NAME":"CZ-2D R/B","OBJECT_ID":"2005-024B","EPOCH":"2026-04-14T00:17:21.876000","MEAN_MOTION":15.63505151,"ECCENTRICITY":0.00028521,"INCLINATION":97.3558,"RA_OF_ASC_NODE":120.5378,"ARG_OF_PERICENTER":211.2897,"MEAN_ANOMALY":148.8192,"EPHEMERIS_TYPE":0,"CLASSIFICATION_TYPE":"U","NORAD_CAT_ID":28738,"ELEMENT_SET_NO":999,"REV_AT_EPOCH":14529,"BSTAR":0.00030778811,"MEAN_MOTION_DOT":0.00028394,"MEAN_MOTION_DDOT":0}]
